IRIDIUM 106             
1 41917U 17003A   25304.18497850  .00000083  00000+0  22678-4 0  9998
2 41917  86.4025 184.2150 0001694  77.3591 282.7794 14.34218125460383
IRIDIUM 103             
1 41918U 17003B   25304.17229077  .00000317  00000+0  10598-3 0  9999
2 41918  86.4024 184.1211 0002308  73.7579 286.3870 14.34217879460402
IRIDIUM 109             
1 41919U 17003C   25304.17863544  .00000236  00000+0  77125-4 0  9993
2 41919  86.4026 184.1741 0002169  80.6777 279.4664 14.34217299460371
IRIDIUM 102             
1 41920U 17003D   25304.21669223  .00000073  00000+0  18905-4 0  9998
2 41920  86.4024 184.0867 0002161  86.9560 273.1883 14.34218270460464
IRIDIUM 105             
1 41921U 17003E   25304.11766449  .00000178  00000+0  56520-4 0  9997
2 41921  86.3986 152.6349 0002224  81.3235 278.8213 14.34218818462307
IRIDIUM 104             
1 41922U 17003F   25304.15960990  .00000014  00000+0 -19266-5 0  9996
2 41922  86.4026 184.1496 0002436  82.6155 277.5317 14.34217810460442
IRIDIUM 114             
1 41923U 17003G   25303.60780298  .00000328  00000+0  11008-3 0  9998
2 41923  86.4027 184.3638 0002184  80.0482 280.0960 14.34219946460343
IRIDIUM 108             
1 41924U 17003H   25304.05470356  .00000318  00000+0  10649-3 0  9999
2 41924  86.3978 152.5545 0002044  90.9162 269.2268 14.34219287462263
